[
  {
    "OBJECT_NAME": "STARLINK-1331",
    "OBJECT_ID": "2020-025AZ",
    "EPOCH": "2025-05-17T13:06:29.528640",
    "MEAN_MOTION": 15.06402483,
    "ECCENTRICITY": 0.0001571,
    "INCLINATION": 53.0545,
    "RA_OF_ASC_NODE": 326.0565,
    "ARG_OF_PERICENTER": 98.2554,
    "MEAN_ANOMALY": 261.8613,
    "EPHEMERIS_TYPE": 0,
    "CLASSIFICATION_TYPE": "U",
    "NORAD_CAT_ID": 45578,
    "ELEMENT_SET_NO": 999,
    "REV_AT_EPOCH": 28088,
    "BSTAR": 7.0417e-05,
    "MEAN_MOTION_DOT": 7.68e-06,
    "MEAN_MOTION_DDOT": 0
  },
  {
    "OBJECT_NAME": "STARLINK-1333",
    "OBJECT_ID": "2020-025BB",
    "EPOCH": "2025-05-17T19:37:56.795808",
    "MEAN_MOTION": 15.06400365,
    "ECCENTRICITY": 0.000157,
    "INCLINATION": 53.0549,
    "RA_OF_ASC_NODE": 334.8422,
    "ARG_OF_PERICENTER": 78.5318,
    "MEAN_ANOMALY": 281.5847,
    "EPHEMERIS_TYPE": 0,
    "CLASSIFICATION_TYPE": "U",
    "NORAD_CAT_ID": 45580,
    "ELEMENT_SET_NO": 999,
    "REV_AT_EPOCH": 28018,
    "BSTAR": -8.0894e-06,
    "MEAN_MOTION_DOT": -4.02e-06,
    "MEAN_MOTION_DDOT": 0
  },
  {
    "OBJECT_NAME": "STARLINK-1335",
    "OBJECT_ID": "2020-025BC",
    "EPOCH": "2025-05-17T19:44:35.486880",
    "MEAN_MOTION": 15.06402473,
    "ECCENTRICITY": 0.0001422,
    "INCLINATION": 53.0553,
    "RA_OF_ASC_NODE": 324.816,
    "ARG_OF_PERICENTER": 104.9934,
    "MEAN_ANOMALY": 255.1212,
    "EPHEMERIS_TYPE": 0,
    "CLASSIFICATION_TYPE": "U",
    "NORAD_CAT_ID": 45581,
    "ELEMENT_SET_NO": 999,
    "REV_AT_EPOCH": 28031,
    "BSTAR": 4.4434e-05,
    "MEAN_MOTION_DOT": 3.8e-06,
    "MEAN_MOTION_DDOT": 0
  },
  {
    "OBJECT_NAME": "STARLINK-1337",
    "OBJECT_ID": "2020-025BD",
    "EPOCH": "2025-05-17T12:18:43.200864",
    "MEAN_MOTION": 15.06404,
    "ECCENTRICITY": 0.0002148,
    "INCLINATION": 53.0541,
    "RA_OF_ASC_NODE": 326.2075,
    "ARG_OF_PERICENTER": 78.9685,
    "MEAN_ANOMALY": 281.1546,
    "EPHEMERIS_TYPE": 0,
    "CLASSIFICATION_TYPE": "U",
    "NORAD_CAT_ID": 45582,
    "ELEMENT_SET_NO": 999,
    "REV_AT_EPOCH": 28086,
    "BSTAR": 0.00015057,
    "MEAN_MOTION_DOT": 1.962e-05,
    "MEAN_MOTION_DDOT": 0
  },
  {
    "OBJECT_NAME": "STARLINK-1347",
    "OBJECT_ID": "2020-025BH",
    "EPOCH": "2025-05-17T12:08:07.003968",
    "MEAN_MOTION": 15.0639646,
    "ECCENTRICITY": 0.0001395,
    "INCLINATION": 53.0541,
    "RA_OF_ASC_NODE": 326.2368,
    "ARG_OF_PERICENTER": 93.1136,
    "MEAN_ANOMALY": 267.0013,
    "EPHEMERIS_TYPE": 0,
    "CLASSIFICATION_TYPE": "U",
    "NORAD_CAT_ID": 45586,
    "ELEMENT_SET_NO": 999,
    "REV_AT_EPOCH": 28085,
    "BSTAR": 0.00013193,
    "MEAN_MOTION_DOT": 1.684e-05,
    "MEAN_MOTION_DDOT": 0
  },
  {
    "OBJECT_NAME": "STARLINK-1349",
    "OBJECT_ID": "2020-025BJ",
    "EPOCH": "2025-05-17T20:58:24.330144",
    "MEAN_MOTION": 15.06793234,
    "ECCENTRICITY": 0.0003157,
    "INCLINATION": 53.0547,
    "RA_OF_ASC_NODE": 324.5824,
    "ARG_OF_PERICENTER": 106.5463,
    "MEAN_ANOMALY": 253.5873,
    "EPHEMERIS_TYPE": 0,
    "CLASSIFICATION_TYPE": "U",
    "NORAD_CAT_ID": 45587,
    "ELEMENT_SET_NO": 999,
    "REV_AT_EPOCH": 28032,
    "BSTAR": 0.004615,
    "MEAN_MOTION_DOT": 0.00069888,
    "MEAN_MOTION_DDOT": 0
  },
  {
    "OBJECT_NAME": "STARLINK-1360",
    "OBJECT_ID": "2020-025BK",
    "EPOCH": "2025-05-17T16:53:51.182304",
    "MEAN_MOTION": 15.56161539,
    "ECCENTRICITY": 0.000118,
    "INCLINATION": 53.0535,
    "RA_OF_ASC_NODE": 296.9908,
    "ARG_OF_PERICENTER": 300.196,
    "MEAN_ANOMALY": 59.8934,
    "EPHEMERIS_TYPE": 0,
    "CLASSIFICATION_TYPE": "U",
    "NORAD_CAT_ID": 45588,
    "ELEMENT_SET_NO": 999,
    "REV_AT_EPOCH": 28069,
    "BSTAR": 0.00064167,
    "MEAN_MOTION_DOT": 0.00045487,
    "MEAN_MOTION_DDOT": 0
  },
  {
    "OBJECT_NAME": "STARLINK-1364",
    "OBJECT_ID": "2020-025BL",
    "EPOCH": "2025-05-17T12:24:02.873088",
    "MEAN_MOTION": 15.06395972,
    "ECCENTRICITY": 0.0001321,
    "INCLINATION": 53.0567,
    "RA_OF_ASC_NODE": 326.1849,
    "ARG_OF_PERICENTER": 115.8787,
    "MEAN_ANOMALY": 244.2338,
    "EPHEMERIS_TYPE": 0,
    "CLASSIFICATION_TYPE": "U",
    "NORAD_CAT_ID": 45589,
    "ELEMENT_SET_NO": 999,
    "REV_AT_EPOCH": 28086,
    "BSTAR": 6.0371e-05,
    "MEAN_MOTION_DOT": 6.18e-06,
    "MEAN_MOTION_DDOT": 0
  },
  {
    "OBJECT_NAME": "STARLINK-1365",
    "OBJECT_ID": "2020-025BM",
    "EPOCH": "2025-05-17T07:59:57.898464",
    "MEAN_MOTION": 15.06414037,
    "ECCENTRICITY": 0.0001188,
    "INCLINATION": 53.0539,
    "RA_OF_ASC_NODE": 357.0156,
    "ARG_OF_PERICENTER": 94.7651,
    "MEAN_ANOMALY": 265.3473,
    "EPHEMERIS_TYPE": 0,
    "CLASSIFICATION_TYPE": "U",
    "NORAD_CAT_ID": 45590,
    "ELEMENT_SET_NO": 999,
    "REV_AT_EPOCH": 28043,
    "BSTAR": -0.00019781,
    "MEAN_MOTION_DOT": -3.228e-05,
    "MEAN_MOTION_DDOT": 0
  },
  {
    "OBJECT_NAME": "STARLINK-1443",
    "OBJECT_ID": "2020-035D",
    "EPOCH": "2025-05-17T12:25:21.775296",
    "MEAN_MOTION": 15.06399309,
    "ECCENTRICITY": 0.0001335,
    "INCLINATION": 53.0569,
    "RA_OF_ASC_NODE": 316.1822,
    "ARG_OF_PERICENTER": 104.6472,
    "MEAN_ANOMALY": 255.4665,
    "EPHEMERIS_TYPE": 0,
    "CLASSIFICATION_TYPE": "U",
    "NORAD_CAT_ID": 45660,
    "ELEMENT_SET_NO": 999,
    "REV_AT_EPOCH": 27409,
    "BSTAR": 9.4252e-05,
    "MEAN_MOTION_DOT": 1.123e-05,
    "MEAN_MOTION_DDOT": 0
  },
  {
    "OBJECT_NAME": "STARLINK-1446",
    "OBJECT_ID": "2020-035G",
    "EPOCH": "2025-05-17T18:12:03.193920",
    "MEAN_MOTION": 15.21646463,
    "ECCENTRICITY": 0.0002801,
    "INCLINATION": 53.0505,
    "RA_OF_ASC_NODE": 301.8916,
    "ARG_OF_PERICENTER": 77.9073,
    "MEAN_ANOMALY": 282.2236,
    "EPHEMERIS_TYPE": 0,
    "CLASSIFICATION_TYPE": "U",
    "NORAD_CAT_ID": 45663,
    "ELEMENT_SET_NO": 999,
    "REV_AT_EPOCH": 27390,
    "BSTAR": 0.0031184,
    "MEAN_MOTION_DOT": 0.00071746,
    "MEAN_MOTION_DDOT": 0
  },
  {
    "OBJECT_NAME": "STARLINK-1448",
    "OBJECT_ID": "2020-035J",
    "EPOCH": "2025-05-17T18:52:49.809504",
    "MEAN_MOTION": 15.06393125,
    "ECCENTRICITY": 0.0001434,
    "INCLINATION": 53.0575,
    "RA_OF_ASC_NODE": 314.9787,
    "ARG_OF_PERICENTER": 95.6776,
    "MEAN_ANOMALY": 264.4376,
    "EPHEMERIS_TYPE": 0,
    "CLASSIFICATION_TYPE": "U",
    "NORAD_CAT_ID": 45665,
    "ELEMENT_SET_NO": 999,
    "REV_AT_EPOCH": 27372,
    "BSTAR": 5.1305e-05,
    "MEAN_MOTION_DOT": 4.83e-06,
    "MEAN_MOTION_DDOT": 0
  },
  {
    "OBJECT_NAME": "STARLINK-1451",
    "OBJECT_ID": "2020-035M",
    "EPOCH": "2025-05-17T18:58:11.983008",
    "MEAN_MOTION": 15.06395704,
    "ECCENTRICITY": 0.0001623,
    "INCLINATION": 53.0562,
    "RA_OF_ASC_NODE": 315.2811,
    "ARG_OF_PERICENTER": 105.0827,
    "MEAN_ANOMALY": 255.0342,
    "EPHEMERIS_TYPE": 0,
    "CLASSIFICATION_TYPE": "U",
    "NORAD_CAT_ID": 45668,
    "ELEMENT_SET_NO": 999,
    "REV_AT_EPOCH": 27372,
    "BSTAR": 4.1483e-05,
    "MEAN_MOTION_DOT": 3.36e-06,
    "MEAN_MOTION_DDOT": 0
  },
  {
    "OBJECT_NAME": "STARLINK-1452",
    "OBJECT_ID": "2020-035N",
    "EPOCH": "2025-05-17T05:06:08.146656",
    "MEAN_MOTION": 15.14768509,
    "ECCENTRICITY": 0.0004669,
    "INCLINATION": 53.0512,
    "RA_OF_ASC_NODE": 314.0657,
    "ARG_OF_PERICENTER": 188.3527,
    "MEAN_ANOMALY": 171.7388,
    "EPHEMERIS_TYPE": 0,
    "CLASSIFICATION_TYPE": "U",
    "NORAD_CAT_ID": 45669,
    "ELEMENT_SET_NO": 999,
    "REV_AT_EPOCH": 27409,
    "BSTAR": 0.0023977,
    "MEAN_MOTION_DOT": 0.0004499,
    "MEAN_MOTION_DDOT": 0
  }
]