STARLINK-1331           
1 45578U 20025AZ  25137.54617510  .00000768  00000+0  70417-4 0  9998
2 45578  53.0545 326.0565 0001571  98.2554 261.8613 15.06402483280883
STARLINK-1333           
1 45580U 20025BB  25137.81801847 -.00000402  00000+0 -80894-5 0  9997
2 45580  53.0549 334.8422 0001570  78.5318 281.5847 15.06400365280185
STARLINK-1335           
1 45581U 20025BC  25137.82263295  .00000380  00000+0  44434-4 0  9990
2 45581  53.0553 324.8160 0001422 104.9934 255.1212 15.06402473280313
STARLINK-1337           
1 45582U 20025BD  25137.51300001  .00001962  00000+0  15057-3 0  9999
2 45582  53.0541 326.2075 0002148  78.9685 281.1546 15.06404000280868
STARLINK-1347           
1 45586U 20025BH  25137.50563662  .00001684  00000+0  13193-3 0  9996
2 45586  53.0541 326.2368 0001395  93.1136 267.0013 15.06396460280851
STARLINK-1349           
1 45587U 20025BJ  25137.87389271  .00069888  00000+0  46150-2 0  9997
2 45587  53.0547 324.5824 0003157 106.5463 253.5873 15.06793234280322
STARLINK-1360           
1 45588U 20025BK  25137.70406461  .00045487  00000+0  64167-3 0  9999
2 45588  53.0535 296.9908 0001180 300.1960  59.8934 15.56161539280690
STARLINK-1364           
1 45589U 20025BL  25137.51669992  .00000618  00000+0  60371-4 0  9990
2 45589  53.0567 326.1849 0001321 115.8787 244.2338 15.06395972280863
STARLINK-1365           
1 45590U 20025BM  25137.33330901 -.00003228  00000+0 -19781-3 0  9997
2 45590  53.0539 357.0156 0001188  94.7651 265.3473 15.06414037280435
STARLINK-1443           
1 45660U 20035D   25137.51761314  .00001123  00000+0  94252-4 0  9999
2 45660  53.0569 316.1822 0001335 104.6472 255.4665 15.06399309274090
STARLINK-1446           
1 45663U 20035G   25137.75837030  .00071746  00000+0  31184-2 0  9998
2 45663  53.0505 301.8916 0002801  77.9073 282.2236 15.21646463273900
STARLINK-1448           
1 45665U 20035J   25137.78668761  .00000483  00000+0  51305-4 0  9995
2 45665  53.0575 314.9787 0001434  95.6776 264.4376 15.06393125273722
STARLINK-1451           
1 45668U 20035M   25137.79041647  .00000336  00000+0  41483-4 0  9990
2 45668  53.0562 315.2811 0001623 105.0827 255.0342 15.06395704273720
STARLINK-1452           
1 45669U 20035N   25137.21259429  .00044990  00000+0  23977-2 0  9997
2 45669  53.0512 314.0657 0004669 188.3527 171.7388 15.14768509274096
